[{"OBJECT_NAME":"YAOGAN-24","OBJECT_ID":"2014-072A","EPOCH":"2026-03-09T23:33:58.619808","MEAN_MOTION":14.76230497,"ECCENTRICITY":0.00123495,"INCLINATION":98.131,"RA_OF_ASC_NODE":205.5775,"ARG_OF_PERICENTER":217.5868,"MEAN_ANOMALY":142.4479,"EPHEMERIS_TYPE":0,"CLASSIFICATION_TYPE":"U","NORAD_CAT_ID":40310,"ELEMENT_SET_NO":999,"REV_AT_EPOCH":60908,"BSTAR":0.00015342398,"MEAN_MOTION_DOT":1.01e-5,"MEAN_MOTION_DDOT":0},{"OBJECT_NAME":"COSMOS 252 DEB","OBJECT_ID":"1968-097R","EPOCH":"2026-03-09T21:14:17.625408","MEAN_MOTION":14.2586139,"ECCENTRICITY":0.04048142,"INCLINATION":62.2843,"RA_OF_ASC_NODE":299.467,"ARG_OF_PERICENTER":222.0036,"MEAN_ANOMALY":134.9322,"EPHEMERIS_TYPE":0,"CLASSIFICATION_TYPE":"U","NORAD_CAT_ID":3565,"ELEMENT_SET_NO":999,"REV_AT_EPOCH":82919,"BSTAR":0.00082009185,"MEAN_MOTION_DOT":4.523e-5,"MEAN_MOTION_DDOT":0}]
